GLOBALSTAR M067 [+]     
1 32263U 07048A   24055.56546258 -.00000095  00000+0  19858-4 0  9991
2 32263  51.9758 356.3803 0001328  47.9209 123.1606 12.40638030750071
GLOBALSTAR M066 [+]     
1 32265U 07048C   24055.91011775 -.00000080  00000+0  13376-3 0  9995
2 32265  51.9702   7.4970 0000659 347.9031  47.3160 12.62260559755532
GLOBALSTAR M068 [-]     
1 32266U 07048D   24055.47405133 -.00000054  00000+0  27512-3 0  9990
2 32266  51.9905 321.4829 0001028 121.9033  49.2334 12.62780523757076
GLOBALSTAR M079 [+]     
1 37188U 10054A   24055.68705483 -.00000093  00000+0  60649-4 0  9995
2 37188  52.0030 156.4174 0000578  99.2581  48.6426 12.62266777616022
GLOBALSTAR M076 [+]     
1 37190U 10054C   24055.57234556 -.00000100  00000+0  21904-4 0  9994
2 37190  52.0020 156.2930 0000970  80.3854  24.5928 12.62274808616330
